{
    "links": {
        "self": "http://www.neowsapp.com/rest/v1/neo/54054326?api_key=iIulBulltgU6a56xZRHN4H3l9WmuAYTsLGpBGhQ2"
    },
    "id": "54054326",
    "neo_reference_id": "54054326",
    "name": "(2020 RU6)",
    "designation": "2020 RU6",
    "nasa_jpl_url": "http://ssd.jpl.nasa.gov/sbdb.cgi?sstr=54054326",
    "absolute_magnitude_h": 26.685,
    "estimated_diameter": {
        "kilometers": {
            "estimated_diameter_min": 0.0122336197,
            "estimated_diameter_max": 0.0273552053
        },
        "meters": {
            "estimated_diameter_min": 12.2336197258,
            "estimated_diameter_max": 27.3552053178
        },
        "miles": {
            "estimated_diameter_min": 0.0076016165,
            "estimated_diameter_max": 0.0169977313
        },
        "feet": {
            "estimated_diameter_min": 40.1365489412,
            "estimated_diameter_max": 89.7480518147
        }
    },
    "is_potentially_hazardous_asteroid": false,
    "close_approach_data": [
        {
            "close_approach_date": "2020-09-07",
            "close_approach_date_full": "2020-Sep-07 23:44",
            "epoch_date_close_approach": 1599522240000,
            "relative_velocity": {
                "kilometers_per_second": "7.1363467234",
                "kilometers_per_hour": "25690.8482042447",
                "miles_per_hour": "15963.2939855764"
            },
            "miss_distance": {
                "astronomical": "0.0099267174",
                "lunar": "3.8614930686",
                "kilometers": "1485015.779131938",
                "miles": "922746.0168512244"
            },
            "orbiting_body": "Earth"
        },
        {
            "close_approach_date": "2020-09-08",
            "close_approach_date_full": "2020-Sep-08 08:48",
            "epoch_date_close_approach": 1599554880000,
            "relative_velocity": {
                "kilometers_per_second": "7.5089494768",
                "kilometers_per_hour": "27032.2181163401",
                "miles_per_hour": "16796.769084567"
            },
            "miss_distance": {
                "astronomical": "0.008848505",
                "lunar": "3.442068445",
                "kilometers": "1323717.50068435",
                "miles": "822519.91417003"
            },
            "orbiting_body": "Moon"
        }
    ],
    "orbital_data": {
        "orbit_id": "1",
        "orbit_determination_date": "2020-09-15 20:42:03",
        "first_observation_date": "2020-09-10",
        "last_observation_date": "2020-09-16",
        "data_arc_in_days": 6,
        "observations_used": 16,
        "orbit_uncertainty": "8",
        "minimum_orbit_intersection": ".00939064",
        "jupiter_tisserand_invariant": "4.400",
        "epoch_osculation": "2459106.5",
        "eccentricity": ".3518247733679044",
        "semi_major_axis": "1.533988570330976",
        "inclination": "7.315424112084175",
        "ascending_node_longitude": "169.0729234870945",
        "orbital_period": "693.9554845000929",
        "perihelion_distance": ".994293389225325",
        "perihelion_argument": "154.7633990919985",
        "aphelion_distance": "2.073683751436628",
        "perihelion_time": "2459081.381124185089",
        "mean_anomaly": "13.03080023912795",
        "mean_motion": ".5187652638257257",
        "equinox": "J2000",
        "orbit_class": {
            "orbit_class_type": "APO",
            "orbit_class_description": "Near-Earth asteroid orbits which cross the Earth’s orbit similar to that of 1862 Apollo",
            "orbit_class_range": "a (semi-major axis) > 1.0 AU; q (perihelion) < 1.017 AU"
        }
    },
    "is_sentry_object": false
}